ONEWEB-0053             
1 45157U 20008AC  23059.05052565  .00000677  00000+0  19019-2 0  9990
2 45157  87.8754 275.7460 0001685  78.5013 281.6304 13.10374021150842
ONEWEB-0053             
1 45157U 20008AC  23059.58502791  .00000643  00000+0  18050-2 0  9996
2 45157  87.8757 275.6393 0001695  78.7461 281.3856 13.10374531150158
ONEWEB-0053             
1 45157U 20008AC  23059.89045745  .00000674  00000+0  18944-2 0  9997
2 45157  87.8757 275.5783 0001693  79.1216 281.0102 13.10374734150191
ONEWEB-0053             
1 45157U 20008AC  23060.11952913  .00000787  00000+0  22186-2 0  9996
2 45157  87.8754 275.5324 0001688  78.9417 281.1900 13.10375127150984
ONEWEB-0053             
1 45157U 20008AC  23060.88310188  .00000720  00000+0  20261-2 0  9991
2 45157  87.8755 275.3799 0001714  79.0450 281.0870 13.10376413150320
ONEWEB-0053             
1 45157U 20008AC  23061.57031755  .00000549  00000+0  15366-2 0  9997
2 45157  87.8759 275.2426 0001660  78.0260 282.1053 13.10376702150414
ONEWEB-0053             
1 45157U 20008AC  23061.57031755  .00000549  00000+0  15366-2 0  9997
2 45157  87.8759 275.2426 0001660  78.0260 282.1053 13.10376702151178
ONEWEB-0053             
1 45157U 20008AC  23062.48660355  .00000394  00000+0  10934-2 0  9996
2 45157  87.8758 275.0597 0001649  78.6579 281.4733 13.10377369150536
ONEWEB-0053             
1 45157U 20008AC  23062.86838922  .00000312  00000+0  85704-3 0  9993
2 45157  87.8758 274.9834 0001638  78.3003 281.8308 13.10377580150587
